{
"type": "FeatureCollection",
"name": "aoi",
"crs": { "type": "name", "properties": { "name": "urn:ogc:def:crs:OGC:1.3:CRS84" } },
"features": [
{ "type": "Feature", "properties": { "shapeName": "Mumbai Suburban", "shapeISO": "", "shapeID": "76128533B67326016655833", "shapeGroup": "IND", "shapeType": "ADM2", "location": "Mumbai, Mumbai Suburban District, Maharashtra, 400051, India", "country": "India", "area_sq_km": 422.36855488027936, "perimeter_km": 108.74675932478992 }, "geometry": { "type": "MultiPolygon", "coordinates": [ [ [ [ 72.78457, 19.26328 ], [ 72.78465, 19.26307 ], [ 72.78425, 19.26233 ], [ 72.78384, 19.26155 ], [ 72.78303, 19.26031 ], [ 72.78241, 19.26008 ], [ 72.78208, 19.25998 ], [ 72.78165, 19.25998 ], [ 72.78117, 19.25974 ], [ 72.78127, 19.25941 ], [ 72.78146, 19.25903 ], [ 72.78155, 19.25841 ], [ 72.78146, 19.25774 ], [ 72.78184, 19.25694 ], [ 72.78236, 19.25537 ], [ 72.78265, 19.25275 ], [ 72.7827, 19.25061 ], [ 72.78203, 19.24756 ], [ 72.78108, 19.24409 ], [ 72.78065, 19.2428 ], [ 72.7807, 19.24185 ], [ 72.78079, 19.24133 ], [ 72.78093, 19.24037 ], [ 72.78041, 19.23933 ], [ 72.77998, 19.23871 ], [ 72.77953, 19.23826 ], [ 72.77936, 19.23809 ], [ 72.77894, 19.23742 ], [ 72.77894, 19.23671 ], [ 72.77946, 19.23642 ], [ 72.7797, 19.23557 ], [ 72.78003, 19.23466 ], [ 72.78019, 19.23327 ], [ 72.78055, 19.23186 ], [ 72.7807, 19.23119 ], [ 72.78051, 19.23067 ], [ 72.77991, 19.22986 ], [ 72.77958, 19.22953 ], [ 72.7794, 19.22917 ], [ 72.77903, 19.22814 ], [ 72.77813, 19.22729 ], [ 72.77737, 19.22662 ], [ 72.7766, 19.22619 ], [ 72.77618, 19.22548 ], [ 72.77599, 19.22453 ], [ 72.77589, 19.22391 ], [ 72.77622, 19.22305 ], [ 72.77641, 19.22224 ], [ 72.77684, 19.22158 ], [ 72.77751, 19.2211 ], [ 72.77765, 19.22067 ], [ 72.77827, 19.2201 ], [ 72.77875, 19.21958 ], [ 72.77903, 19.2191 ], [ 72.77951, 19.21834 ], [ 72.78013, 19.21786 ], [ 72.78098, 19.21701 ], [ 72.78151, 19.21553 ], [ 72.7816, 19.21411 ], [ 72.78141, 19.21211 ], [ 72.78079, 19.21073 ], [ 72.78022, 19.20897 ], [ 72.77998, 19.20744 ], [ 72.77998, 19.20668 ], [ 72.78017, 19.20621 ], [ 72.78093, 19.20649 ], [ 72.78127, 19.20668 ], [ 72.78208, 19.20682 ], [ 72.78255, 19.20654 ], [ 72.78355, 19.2063 ], [ 72.78441, 19.20582 ], [ 72.78484, 19.2054 ], [ 72.78531, 19.20468 ], [ 72.78579, 19.20387 ], [ 72.78588, 19.20302 ], [ 72.78584, 19.20207 ], [ 72.7856, 19.20102 ], [ 72.78427, 19.20049 ], [ 72.78341, 19.20069 ], [ 72.78293, 19.20035 ], [ 72.78255, 19.19959 ], [ 72.78222, 19.19864 ], [ 72.78236, 19.19764 ], [ 72.78227, 19.19702 ], [ 72.78198, 19.19621 ], [ 72.78155, 19.19526 ], [ 72.78193, 19.19431 ], [ 72.78203, 19.19359 ], [ 72.7827, 19.1934 ], [ 72.78327, 19.19393 ], [ 72.7837, 19.19317 ], [ 72.78436, 19.19302 ], [ 72.78493, 19.19326 ], [ 72.78588, 19.19321 ], [ 72.78631, 19.19355 ], [ 72.78674, 19.19398 ], [ 72.78755, 19.19417 ], [ 72.78845, 19.19364 ], [ 72.78903, 19.19336 ], [ 72.78969, 19.19307 ], [ 72.79045, 19.19317 ], [ 72.7914, 19.19359 ], [ 72.79188, 19.19421 ], [ 72.79226, 19.19493 ], [ 72.79293, 19.19597 ], [ 72.79309, 19.19645 ], [ 72.79357, 19.1968 ], [ 72.79366, 19.19695 ], [ 72.79628, 19.19796 ], [ 72.79688, 19.1983 ], [ 72.79645, 19.19776 ], [ 72.79619, 19.19743 ], [ 72.79605, 19.19648 ], [ 72.79659, 19.1964 ], [ 72.79635, 19.19516 ], [ 72.79621, 19.19359 ], [ 72.79559, 19.19193 ], [ 72.79564, 19.19017 ], [ 72.79578, 19.18855 ], [ 72.79621, 19.18707 ], [ 72.79613, 19.18533 ], [ 72.79597, 19.18103 ], [ 72.79426, 19.17299 ], [ 72.79422, 19.17182 ], [ 72.79421, 19.17151 ], [ 72.79255, 19.17156 ], [ 72.79169, 19.17147 ], [ 72.79107, 19.17099 ], [ 72.79002, 19.17004 ], [ 72.78888, 19.16942 ], [ 72.78788, 19.16832 ], [ 72.78674, 19.16718 ], [ 72.78607, 19.16647 ], [ 72.78493, 19.16647 ], [ 72.7845, 19.16694 ], [ 72.78336, 19.16766 ], [ 72.78227, 19.16771 ], [ 72.78155, 19.16747 ], [ 72.78122, 19.16661 ], [ 72.78084, 19.16566 ], [ 72.78074, 19.16476 ], [ 72.78103, 19.16423 ], [ 72.78193, 19.16371 ], [ 72.78274, 19.16314 ], [ 72.7835, 19.16219 ], [ 72.78393, 19.16114 ], [ 72.78408, 19.16028 ], [ 72.78312, 19.15962 ], [ 72.78227, 19.15928 ], [ 72.78193, 19.159 ], [ 72.78155, 19.15843 ], [ 72.78151, 19.1579 ], [ 72.78222, 19.15776 ], [ 72.78251, 19.15805 ], [ 72.78308, 19.15809 ], [ 72.78384, 19.15752 ], [ 72.78417, 19.1569 ], [ 72.78427, 19.15576 ], [ 72.78422, 19.15476 ], [ 72.78469, 19.15433 ], [ 72.78579, 19.15381 ], [ 72.78693, 19.15248 ], [ 72.7885, 19.15015 ], [ 72.78903, 19.14824 ], [ 72.78912, 19.14586 ], [ 72.78868, 19.14472 ], [ 72.78855, 19.14439 ], [ 72.78817, 19.14367 ], [ 72.78769, 19.14315 ], [ 72.78769, 19.14248 ], [ 72.78788, 19.14201 ], [ 72.78792, 19.14141 ], [ 72.78793, 19.14134 ], [ 72.78793, 19.14048 ], [ 72.78793, 19.14006 ], [ 72.78845, 19.1392 ], [ 72.78836, 19.13825 ], [ 72.78836, 19.1373 ], [ 72.78836, 19.13658 ], [ 72.78836, 19.13606 ], [ 72.78826, 19.13549 ], [ 72.78812, 19.13501 ], [ 72.78798, 19.13444 ], [ 72.78798, 19.13363 ], [ 72.78769, 19.1333 ], [ 72.78731, 19.13301 ], [ 72.78684, 19.13282 ], [ 72.78665, 19.13244 ], [ 72.78698, 19.13235 ], [ 72.78774, 19.13239 ], [ 72.78822, 19.13201 ], [ 72.78836, 19.13173 ], [ 72.7885, 19.13121 ], [ 72.78836, 19.13087 ], [ 72.78784, 19.13063 ], [ 72.78731, 19.13059 ], [ 72.78703, 19.13044 ], [ 72.78679, 19.12973 ], [ 72.78674, 19.1293 ], [ 72.78707, 19.12897 ], [ 72.78741, 19.1293 ], [ 72.78764, 19.12963 ], [ 72.78822, 19.12963 ], [ 72.7886, 19.12954 ], [ 72.78917, 19.13016 ], [ 72.7895, 19.13106 ], [ 72.79036, 19.13116 ], [ 72.79131, 19.13092 ], [ 72.79155, 19.1304 ], [ 72.79221, 19.13006 ], [ 72.79312, 19.1304 ], [ 72.7935, 19.13063 ], [ 72.79459, 19.13101 ], [ 72.79497, 19.13154 ], [ 72.79521, 19.13225 ], [ 72.79545, 19.13273 ], [ 72.79607, 19.13311 ], [ 72.7964, 19.13373 ], [ 72.7964, 19.13454 ], [ 72.7964, 19.13525 ], [ 72.79616, 19.13606 ], [ 72.79583, 19.13687 ], [ 72.79593, 19.13763 ], [ 72.79593, 19.13844 ], [ 72.79569, 19.1392 ], [ 72.79502, 19.13977 ], [ 72.79445, 19.14048 ], [ 72.79431, 19.14087 ], [ 72.79469, 19.14115 ], [ 72.79535, 19.14106 ], [ 72.79613, 19.14127 ], [ 72.7965, 19.14167 ], [ 72.79959, 19.14315 ], [ 72.80181, 19.14441 ], [ 72.80249, 19.14424 ], [ 72.80306, 19.14348 ], [ 72.80302, 19.14282 ], [ 72.80283, 19.14206 ], [ 72.80297, 19.1412 ], [ 72.80363, 19.14044 ], [ 72.80412, 19.14009 ], [ 72.80498, 19.13918 ], [ 72.80582, 19.13839 ], [ 72.80674, 19.13757 ], [ 72.80733, 19.13704 ], [ 72.80882, 19.13568 ], [ 72.81096, 19.1332 ], [ 72.81193, 19.13179 ], [ 72.81381, 19.12899 ], [ 72.81533, 19.12668 ], [ 72.8159, 19.12581 ], [ 72.81786, 19.12283 ], [ 72.81821, 19.12211 ], [ 72.81894, 19.12055 ], [ 72.81986, 19.11859 ], [ 72.82129, 19.11485 ], [ 72.8226, 19.11092 ], [ 72.82415, 19.10422 ], [ 72.82519, 19.09956 ], [ 72.82605, 19.09732 ], [ 72.82672, 19.09309 ], [ 72.82625, 19.08812 ], [ 72.82562, 19.08533 ], [ 72.82524, 19.08438 ], [ 72.8251, 19.08328 ], [ 72.825, 19.08186 ], [ 72.82463, 19.08054 ], [ 72.82444, 19.08018 ], [ 72.82405, 19.07952 ], [ 72.82253, 19.07838 ], [ 72.82177, 19.07729 ], [ 72.82157, 19.07686 ], [ 72.82148, 19.07667 ], [ 72.82186, 19.07514 ], [ 72.82177, 19.07443 ], [ 72.82167, 19.07338 ], [ 72.82167, 19.07229 ], [ 72.822, 19.07105 ], [ 72.82234, 19.07048 ], [ 72.82253, 19.06929 ], [ 72.82234, 19.06858 ], [ 72.82235, 19.06853 ], [ 72.82243, 19.06772 ], [ 72.82267, 19.06691 ], [ 72.82299, 19.06584 ], [ 72.82301, 19.06483 ], [ 72.82302, 19.06478 ], [ 72.82267, 19.06396 ], [ 72.82227, 19.06268 ], [ 72.82181, 19.06158 ], [ 72.8212, 19.06015 ], [ 72.82068, 19.05899 ], [ 72.82162, 19.0582 ], [ 72.8221, 19.05791 ], [ 72.82267, 19.05758 ], [ 72.82353, 19.05668 ], [ 72.824, 19.05573 ], [ 72.82381, 19.05511 ], [ 72.82319, 19.05463 ], [ 72.82215, 19.05402 ], [ 72.82148, 19.0524 ], [ 72.8211, 19.05054 ], [ 72.82039, 19.04911 ], [ 72.81839, 19.04545 ], [ 72.81758, 19.04369 ], [ 72.81708, 19.04143 ], [ 72.81725, 19.03934 ], [ 72.81731, 19.03936 ], [ 72.81764, 19.0382 ], [ 72.81776, 19.03774 ], [ 72.81888, 19.03323 ], [ 72.8244, 19.03209 ], [ 72.82522, 19.03192 ], [ 72.82848, 19.03318 ], [ 72.83544, 19.0426 ], [ 72.83781, 19.04389 ], [ 72.83921, 19.04467 ], [ 72.83924, 19.0447 ], [ 72.83928, 19.0447 ], [ 72.83939, 19.04476 ], [ 72.83944, 19.04478 ], [ 72.8398, 19.04498 ], [ 72.84009, 19.04504 ], [ 72.84016, 19.0452 ], [ 72.8403, 19.04526 ], [ 72.84061, 19.04541 ], [ 72.841, 19.04553 ], [ 72.84124, 19.04562 ], [ 72.84158, 19.04572 ], [ 72.84186, 19.04577 ], [ 72.84208, 19.04583 ], [ 72.84216, 19.04586 ], [ 72.84222, 19.04588 ], [ 72.84229, 19.0459 ], [ 72.84238, 19.04592 ], [ 72.84293, 19.04607 ], [ 72.84292, 19.04625 ], [ 72.8429, 19.04646 ], [ 72.84321, 19.04658 ], [ 72.84346, 19.04669 ], [ 72.84357, 19.04687 ], [ 72.84377, 19.04696 ], [ 72.84392, 19.04702 ], [ 72.84406, 19.04708 ], [ 72.84415, 19.04712 ], [ 72.84476, 19.04738 ], [ 72.84484, 19.04742 ], [ 72.84492, 19.04743 ], [ 72.84849, 19.04785 ], [ 72.84992, 19.04891 ], [ 72.85012, 19.04906 ], [ 72.85022, 19.04913 ], [ 72.85032, 19.04921 ], [ 72.85243, 19.05077 ], [ 72.8525, 19.05082 ], [ 72.85491, 19.0526 ], [ 72.85612, 19.0532 ], [ 72.85766, 19.05397 ], [ 72.85781, 19.05405 ], [ 72.86059, 19.05543 ], [ 72.86187, 19.05497 ], [ 72.86474, 19.05404 ], [ 72.86482, 19.05401 ], [ 72.86556, 19.05376 ], [ 72.86574, 19.0537 ], [ 72.86679, 19.05335 ], [ 72.86705, 19.05327 ], [ 72.86713, 19.05324 ], [ 72.86733, 19.05317 ], [ 72.86744, 19.05313 ], [ 72.86782, 19.05301 ], [ 72.86786, 19.05292 ], [ 72.86793, 19.05286 ], [ 72.868, 19.0528 ], [ 72.86826, 19.05289 ], [ 72.86857, 19.05261 ], [ 72.86877, 19.05249 ], [ 72.86894, 19.05244 ], [ 72.86907, 19.05259 ], [ 72.86915, 19.05252 ], [ 72.86921, 19.05247 ], [ 72.86971, 19.05247 ], [ 72.86979, 19.05231 ], [ 72.87, 19.05204 ], [ 72.8705, 19.05168 ], [ 72.87088, 19.05145 ], [ 72.87109, 19.05137 ], [ 72.87196, 19.05117 ], [ 72.87189, 19.05101 ], [ 72.87156, 19.05107 ], [ 72.87163, 19.05075 ], [ 72.87182, 19.05069 ], [ 72.87217, 19.05064 ], [ 72.87224, 19.05059 ], [ 72.87257, 19.05033 ], [ 72.8727, 19.05023 ], [ 72.87292, 19.05014 ], [ 72.87308, 19.05003 ], [ 72.87323, 19.04993 ], [ 72.87385, 19.04946 ], [ 72.87431, 19.04914 ], [ 72.87493, 19.04911 ], [ 72.87601, 19.04874 ], [ 72.8768, 19.04813 ], [ 72.87717, 19.04751 ], [ 72.87734, 19.04702 ], [ 72.87829, 19.04635 ], [ 72.87828, 19.04626 ], [ 72.87804, 19.04468 ], [ 72.87785, 19.04344 ], [ 72.87768, 19.04228 ], [ 72.87753, 19.04132 ], [ 72.87748, 19.04097 ], [ 72.87737, 19.04035 ], [ 72.87675, 19.03653 ], [ 72.87673, 19.03644 ], [ 72.87663, 19.03594 ], [ 72.87647, 19.03501 ], [ 72.87631, 19.03407 ], [ 72.87623, 19.03359 ], [ 72.87615, 19.03312 ], [ 72.87607, 19.03264 ], [ 72.87601, 19.03227 ], [ 72.87584, 19.03125 ], [ 72.87575, 19.03072 ], [ 72.87418, 19.02713 ], [ 72.87302, 19.02448 ], [ 72.87255, 19.02341 ], [ 72.87244, 19.02316 ], [ 72.87258, 19.02301 ], [ 72.87385, 19.02168 ], [ 72.87404, 19.02148 ], [ 72.8749, 19.02054 ], [ 72.87497, 19.02047 ], [ 72.87502, 19.02042 ], [ 72.87506, 19.02038 ], [ 72.87592, 19.0195 ], [ 72.87612, 19.01929 ], [ 72.87621, 19.01919 ], [ 72.87679, 19.01859 ], [ 72.88092, 19.0162 ], [ 72.88151, 19.01586 ], [ 72.88471, 19.01401 ], [ 72.88518, 19.01385 ], [ 72.88554, 19.01371 ], [ 72.88584, 19.01336 ], [ 72.8858, 19.01309 ], [ 72.88575, 19.01219 ], [ 72.88572, 19.01117 ], [ 72.88509, 19.00819 ], [ 72.88426, 19.00246 ], [ 72.88416, 19.00173 ], [ 72.88426, 19.00118 ], [ 72.8851, 18.99881 ], [ 72.88732, 18.99696 ], [ 72.88955, 18.99617 ], [ 72.89234, 18.9959 ], [ 72.89597, 18.99538 ], [ 72.89931, 18.99432 ], [ 72.90237, 18.99326 ], [ 72.90377, 18.99195 ], [ 72.90453, 18.99114 ], [ 72.90487, 18.99037 ], [ 72.90542, 18.98922 ], [ 72.90552, 18.98917 ], [ 72.90579, 18.98921 ], [ 72.90596, 18.98929 ], [ 72.90599, 18.98947 ], [ 72.90572, 18.99063 ], [ 72.90906, 18.99063 ], [ 72.91046, 18.99063 ], [ 72.91129, 18.99142 ], [ 72.91316, 18.99472 ], [ 72.91353, 18.99537 ], [ 72.91417, 18.99576 ], [ 72.91673, 18.99914 ], [ 72.91851, 18.99965 ], [ 72.91959, 19.00022 ], [ 72.92106, 19.00063 ], [ 72.9214, 19.00038 ], [ 72.92155, 19.00001 ], [ 72.92158, 18.99993 ], [ 72.92171, 18.99961 ], [ 72.9218, 18.9993 ], [ 72.92192, 18.99909 ], [ 72.92209, 18.99878 ], [ 72.92216, 18.99861 ], [ 72.92222, 18.9985 ], [ 72.92231, 18.99846 ], [ 72.9224, 18.99847 ], [ 72.92256, 18.99855 ], [ 72.9227, 18.99861 ], [ 72.92294, 18.99867 ], [ 72.92305, 18.99869 ], [ 72.9231, 18.99875 ], [ 72.92308, 18.99898 ], [ 72.92303, 18.99932 ], [ 72.92294, 18.99965 ], [ 72.92277, 19.00009 ], [ 72.92259, 19.0006 ], [ 72.92236, 19.0012 ], [ 72.92222, 19.00152 ], [ 72.9236, 19.00346 ], [ 72.9255, 19.00529 ], [ 72.93316, 19.01088 ], [ 72.94097, 19.01639 ], [ 72.9489, 19.02191 ], [ 72.95201, 19.02461 ], [ 72.95604, 19.02916 ], [ 72.95931, 19.03417 ], [ 72.96077, 19.03842 ], [ 72.96173, 19.0435 ], [ 72.96219, 19.04743 ], [ 72.96242, 19.05257 ], [ 72.96202, 19.05572 ], [ 72.9687, 19.05841 ], [ 72.97277, 19.05954 ], [ 72.97347, 19.0597 ], [ 72.97316, 19.06032 ], [ 72.97299, 19.06104 ], [ 72.97275, 19.06208 ], [ 72.97272, 19.06218 ], [ 72.97269, 19.06231 ], [ 72.97265, 19.06251 ], [ 72.97148, 19.0675 ], [ 72.9699, 19.07541 ], [ 72.97057, 19.08212 ], [ 72.96894, 19.09424 ], [ 72.96938, 19.09734 ], [ 72.97148, 19.11243 ], [ 72.97431, 19.1207 ], [ 72.97532, 19.12281 ], [ 72.98062, 19.13409 ], [ 72.98078, 19.13443 ], [ 72.98113, 19.13577 ], [ 72.98163, 19.1377 ], [ 72.98234, 19.14041 ], [ 72.98368, 19.14556 ], [ 72.98374, 19.14605 ], [ 72.984, 19.14798 ], [ 72.98414, 19.14904 ], [ 72.98423, 19.14974 ], [ 72.98426, 19.15003 ], [ 72.98428, 19.15015 ], [ 72.98453, 19.152 ], [ 72.98415, 19.15567 ], [ 72.98404, 19.1567 ], [ 72.9836, 19.15749 ], [ 72.983, 19.15855 ], [ 72.98275, 19.15899 ], [ 72.98221, 19.15906 ], [ 72.98213, 19.15907 ], [ 72.98211, 19.15911 ], [ 72.98008, 19.16271 ], [ 72.97997, 19.16366 ], [ 72.97994, 19.16396 ], [ 72.97688, 19.16936 ], [ 72.97671, 19.16967 ], [ 72.97612, 19.17072 ], [ 72.97578, 19.17133 ], [ 72.97571, 19.17145 ], [ 72.97522, 19.17231 ], [ 72.9748, 19.17305 ], [ 72.97449, 19.1736 ], [ 72.97417, 19.17416 ], [ 72.97392, 19.1746 ], [ 72.97353, 19.17528 ], [ 72.97331, 19.17567 ], [ 72.97295, 19.1763 ], [ 72.9726, 19.17691 ], [ 72.97231, 19.17743 ], [ 72.97199, 19.17763 ], [ 72.97159, 19.17788 ], [ 72.97105, 19.17821 ], [ 72.97, 19.17886 ], [ 72.96982, 19.17897 ], [ 72.96952, 19.17915 ], [ 72.96933, 19.17927 ], [ 72.96859, 19.17973 ], [ 72.96788, 19.18017 ], [ 72.96746, 19.18042 ], [ 72.96669, 19.18088 ], [ 72.9666, 19.18093 ], [ 72.96629, 19.1811 ], [ 72.96623, 19.18114 ], [ 72.96617, 19.18118 ], [ 72.96611, 19.18122 ], [ 72.96604, 19.18124 ], [ 72.96565, 19.18154 ], [ 72.96506, 19.1819 ], [ 72.96498, 19.18195 ], [ 72.9647, 19.18212 ], [ 72.96448, 19.18217 ], [ 72.96437, 19.1822 ], [ 72.96341, 19.18244 ], [ 72.96292, 19.18256 ], [ 72.96243, 19.18268 ], [ 72.96127, 19.18298 ], [ 72.95837, 19.1837 ], [ 72.95801, 19.18379 ], [ 72.95707, 19.18402 ], [ 72.95599, 19.18449 ], [ 72.95521, 19.18484 ], [ 72.95508, 19.18491 ], [ 72.9532, 19.18569 ], [ 72.95311, 19.18573 ], [ 72.95213, 19.18615 ], [ 72.94952, 19.18729 ], [ 72.94876, 19.1875 ], [ 72.94592, 19.1883 ], [ 72.94458, 19.18868 ], [ 72.94402, 19.18884 ], [ 72.94284, 19.18917 ], [ 72.94183, 19.18946 ], [ 72.94062, 19.1898 ], [ 72.93851, 19.1904 ], [ 72.93849, 19.19585 ], [ 72.93844, 19.20572 ], [ 72.93688, 19.20702 ], [ 72.92865, 19.21392 ], [ 72.92301, 19.22213 ], [ 72.92151, 19.22397 ], [ 72.92011, 19.22569 ], [ 72.91329, 19.23404 ], [ 72.91261, 19.23487 ], [ 72.91197, 19.23592 ], [ 72.90795, 19.24255 ], [ 72.9088, 19.24743 ], [ 72.88968, 19.25183 ], [ 72.88915, 19.25212 ], [ 72.88689, 19.25371 ], [ 72.88539, 19.2549 ], [ 72.88405, 19.25604 ], [ 72.88337, 19.25658 ], [ 72.88223, 19.25728 ], [ 72.88056, 19.25811 ], [ 72.87892, 19.25871 ], [ 72.87769, 19.2588 ], [ 72.87686, 19.25904 ], [ 72.87638, 19.25956 ], [ 72.87596, 19.25977 ], [ 72.87568, 19.25989 ], [ 72.87558, 19.26003 ], [ 72.87507, 19.26056 ], [ 72.87342, 19.26159 ], [ 72.87334, 19.26165 ], [ 72.87325, 19.26174 ], [ 72.87312, 19.26182 ], [ 72.87125, 19.26331 ], [ 72.87098, 19.26349 ], [ 72.87039, 19.26395 ], [ 72.86994, 19.26434 ], [ 72.86963, 19.26454 ], [ 72.86953, 19.26467 ], [ 72.86938, 19.26496 ], [ 72.86901, 19.26515 ], [ 72.86882, 19.26517 ], [ 72.86869, 19.26521 ], [ 72.86864, 19.26531 ], [ 72.86831, 19.26556 ], [ 72.86796, 19.26568 ], [ 72.86762, 19.26589 ], [ 72.86751, 19.26593 ], [ 72.86721, 19.26607 ], [ 72.86661, 19.26629 ], [ 72.86633, 19.26654 ], [ 72.8644, 19.26727 ], [ 72.86229, 19.26771 ], [ 72.86003, 19.26842 ], [ 72.85822, 19.26918 ], [ 72.85725, 19.26932 ], [ 72.85655, 19.26927 ], [ 72.85464, 19.269 ], [ 72.85233, 19.26866 ], [ 72.85148, 19.2685 ], [ 72.85145, 19.2685 ], [ 72.85113, 19.26845 ], [ 72.85057, 19.26834 ], [ 72.84945, 19.26801 ], [ 72.84857, 19.2677 ], [ 72.84778, 19.26748 ], [ 72.84676, 19.26738 ], [ 72.8467, 19.26738 ], [ 72.84598, 19.2674 ], [ 72.84502, 19.26712 ], [ 72.84428, 19.26681 ], [ 72.84295, 19.26652 ], [ 72.84195, 19.26592 ], [ 72.83928, 19.26453 ], [ 72.83883, 19.26 ], [ 72.83865, 19.25816 ], [ 72.83844, 19.25623 ], [ 72.83843, 19.25611 ], [ 72.8382, 19.25352 ], [ 72.83645, 19.24996 ], [ 72.83324, 19.24784 ], [ 72.8331, 19.24775 ], [ 72.83297, 19.24766 ], [ 72.83028, 19.24611 ], [ 72.82804, 19.24571 ], [ 72.82771, 19.24565 ], [ 72.82598, 19.24535 ], [ 72.82325, 19.24569 ], [ 72.82311, 19.24571 ], [ 72.82108, 19.24597 ], [ 72.82098, 19.24598 ], [ 72.82009, 19.24607 ], [ 72.8194, 19.24615 ], [ 72.81596, 19.24912 ], [ 72.81592, 19.24915 ], [ 72.81502, 19.24994 ], [ 72.81067, 19.25371 ], [ 72.80779, 19.25622 ], [ 72.80679, 19.25707 ], [ 72.80384, 19.25963 ], [ 72.80314, 19.26024 ], [ 72.80287, 19.26047 ], [ 72.80205, 19.26117 ], [ 72.80173, 19.26146 ], [ 72.80153, 19.26163 ], [ 72.79996, 19.26119 ], [ 72.79984, 19.26116 ], [ 72.79954, 19.26107 ], [ 72.79706, 19.26036 ], [ 72.79653, 19.2604 ], [ 72.79348, 19.26063 ], [ 72.7918, 19.26075 ], [ 72.79131, 19.26092 ], [ 72.79079, 19.2611 ], [ 72.79071, 19.26113 ], [ 72.78602, 19.26277 ], [ 72.78575, 19.26287 ], [ 72.78479, 19.2632 ], [ 72.78457, 19.26328 ] ] ], [ [ [ 72.78153, 19.13292 ], [ 72.78168, 19.13298 ], [ 72.78178, 19.1331 ], [ 72.7819, 19.13337 ], [ 72.78199, 19.13349 ], [ 72.78218, 19.13365 ], [ 72.78232, 19.13381 ], [ 72.78239, 19.13395 ], [ 72.78245, 19.13416 ], [ 72.78247, 19.13437 ], [ 72.78241, 19.13482 ], [ 72.78231, 19.13514 ], [ 72.78214, 19.1354 ], [ 72.78163, 19.13599 ], [ 72.78135, 19.13627 ], [ 72.78119, 19.13632 ], [ 72.78099, 19.13634 ], [ 72.78075, 19.13629 ], [ 72.78045, 19.13619 ], [ 72.78028, 19.13604 ], [ 72.78016, 19.13586 ], [ 72.7801, 19.1356 ], [ 72.78004, 19.13545 ], [ 72.77996, 19.13532 ], [ 72.77964, 19.13498 ], [ 72.77955, 19.13482 ], [ 72.77954, 19.13469 ], [ 72.77956, 19.13453 ], [ 72.77962, 19.13438 ], [ 72.77975, 19.13417 ], [ 72.77986, 19.13403 ], [ 72.78014, 19.13374 ], [ 72.78044, 19.13346 ], [ 72.78086, 19.13316 ], [ 72.78113, 19.13297 ], [ 72.78125, 19.1329 ], [ 72.78138, 19.13289 ], [ 72.78153, 19.13292 ] ] ] ] } }
]
}
